MEAN_MOTION;ECCENTRICITY;INCLINATION;RA_OF_ASC_NODE;ARG_OF_PERICENTER;MEAN_ANOMALY;BSTAR;MEAN_MOTION_DOT;MEAN_MOTION_DDOT;TYPE
12.2025048;0.0011785;51.9913;299.018;283.5308;76.4226;0.00081176;-7.0E-8;0;Globalstar
12.20250616;0.0011782;51.9911;296.4826;285.4127;74.5419;0.00078891;-1.0E-7;0;Globalstar
12.20250631;0.0011781;51.9911;296.2521;285.5831;74.3716;0.00079493;-9.0E-8;0;Globalstar
12.20250816;0.0011776;51.991;293.486;287.5689;72.3871;0.00072355;-1.6E-7;0;Globalstar
12.20250911;0.0011775;51.9909;291.642;288.9481;71.009;0.00061328;-2.8E-7;0;Globalstar
12.20250923;0.0011771;51.9909;291.181;289.2802;70.6772;0.00054912;-3.5E-7;0;Globalstar
12.20250959;0.0011769;51.9908;290.259;289.9846;69.9733;0.0004927;-4.0E-7;0;Globalstar
12.20251039;0.0011773;51.9907;288.6455;291.1782;68.7807;0.00040304;-5.0E-7;0;Globalstar
12.20251105;0.0011784;51.9906;285.4185;293.656;66.305;0.00015145;-7.6E-7;0;Globalstar
12.20251126;0.0011791;51.9905;284.9575;294.0377;65.9236;0.00015849;-7.5E-7;0;Globalstar
12.20251154;0.0011797;51.9904;282.1915;296.1077;63.8556;4.2343E-5;-8.7E-7;0;Globalstar
12.20251156;0.0011803;51.9904;281.961;296.3206;63.6428;4.7917E-5;-8.7E-7;0;Globalstar
12.20251196;0.0011807;51.9903;279.8865;297.8501;62.115;4.3966E-5;-8.7E-7;0;Globalstar
12.20251294;0.0011809;51.9902;277.1205;299.9084;60.059;0.0002069;-7.0E-7;0;Globalstar
12.20251447;0.0011785;51.99;273.8933;302.0822;57.8881;0.00050353;-3.9E-7;0;Globalstar
12.20251563;0.0011799;51.9899;270.8968;304.3329;55.6402;0.0007382;-1.5E-7;0;Globalstar
12.20251563;0.0011799;51.9899;270.8968;304.3329;55.6402;0.0007382;-1.5E-7;0;Globalstar
12.20251727;0.0011804;51.9899;268.3612;306.1832;53.7923;0.00093381;5.0E-8;0;Globalstar
12.20251748;0.0011805;51.9899;267.9002;306.5242;53.4518;0.00095614;8.0E-8;0;Globalstar
12.20251903;0.0011801;51.99;265.5952;308.0898;51.8885;0.0010035;1.3E-7;0;Globalstar
12.20252081;0.0011806;51.99;263.2902;309.7495;50.2312;0.001029;1.5E-7;0;Globalstar
12.20252094;0.0011821;51.9899;262.829;310.2264;49.7548;0.0010837;2.1E-7;0;Globalstar
12.20252199;0.0011834;51.9899;260.7544;311.8081;48.1755;0.00095334;7.0E-8;0;Globalstar
12.2025226;0.0011833;51.9899;260.0629;312.298;47.6863;0.0009405;6.0E-8;0;Globalstar
12.20252476;0.0011833;51.9899;257.9884;313.7189;46.2677;0.00085066;-3.0E-8;0;Globalstar
12.20252581;0.0011829;51.9899;256.8359;314.4574;45.5305;0.00079662;-9.0E-8;0;Globalstar
12.20252816;0.0011831;51.9899;254.3005;316.0728;43.9178;0.00064677;-2.4E-7;0;Globalstar
12.20252818;0.0011835;51.9899;254.07;316.2411;43.7498;0.00061235;-2.8E-7;0;Globalstar
12.20252983;0.0011846;51.99;251.3041;318.2309;41.7633;0.00043613;-4.6E-7;0;Globalstar
12.20252983;0.0011846;51.99;251.3041;318.2309;41.7633;0.00043613;-4.6E-7;0;Globalstar
12.20253123;0.0011857;51.99;249.2297;319.6932;40.3036;0.00037713;-5.2E-7;0;Globalstar
12.20253198;0.0011865;51.99;246.9248;321.325;38.6747;0.00032024;-5.8E-7;0;Globalstar
12.2025329;0.0011879;51.9901;244.1589;323.3078;36.6955;0.00036257;-5.4E-7;0;Globalstar
12.20253306;0.001188;51.9901;243.6979;323.6791;36.3249;0.00037178;-5.3E-7;0;Globalstar
12.20253408;0.0011893;51.9902;240.932;325.6197;34.388;0.00053046;-3.7E-7;0;Globalstar
12.20253591;0.0011905;51.9902;238.166;327.6166;32.3949;0.00081109;-7.0E-8;0;Globalstar
12.2025369;0.0011914;51.9903;237.4746;327.9968;32.0154;0.00096621;9.0E-8;0;Globalstar
12.20253678;0.0011917;51.9903;237.2441;328.1775;31.8351;0.00094324;6.0E-8;0;Globalstar
12.20253976;0.0011936;51.9905;234.4784;330.0776;29.9388;0.0012789;4.1E-7;0;Globalstar
12.20253976;0.0011936;51.9905;234.4784;330.0776;29.9388;0.0012789;4.1E-7;0;Globalstar
12.20254133;0.001195;51.9906;232.404;331.5462;28.4732;0.0013753;5.1E-7;0;Globalstar
12.20254337;0.0011965;51.9906;229.8685;333.3165;26.7066;0.0014067;5.5E-7;0;Globalstar
12.20254544;0.001198;51.9908;227.1027;335.2488;24.7783;0.0012958;4.3E-7;0;Globalstar
12.20254739;0.0011993;51.9909;224.5673;336.9939;23.037;0.0011205;2.5E-7;0;Globalstar
12.20254737;0.001201;51.9907;223.8757;337.3789;22.6528;0.0010209;1.4E-7;0;Globalstar
12.2025488;0.0012028;51.9908;221.3404;339.1353;20.9002;0.00074069;-1.5E-7;0;Globalstar
12.20254897;0.001203;51.9907;221.1099;339.3081;20.7278;0.00073308;-1.5E-7;0;Globalstar
12.20255048;0.0012058;51.9908;217.6527;341.6885;18.3527;0.00038086;-5.2E-7;0;Globalstar
12.20255168;0.0012076;51.9907;214.887;343.5753;16.4702;0.00025219;-6.5E-7;0;Globalstar
12.20255231;0.0012086;51.9907;213.0431;344.8577;15.1907;0.00021985;-6.9E-7;0;Globalstar
12.20255335;0.0012111;51.9906;209.8163;347.0986;12.955;0.00034777;-5.6E-7;0;Globalstar
12.20255468;0.0012141;51.9906;206.5897;349.2988;10.7599;0.00060831;-2.8E-7;0;Globalstar
12.2025558;0.0012156;51.9906;204.2848;350.8967;9.1659;0.00083817;-5.0E-8;0;Globalstar
12.20255707;0.0012171;51.9905;202.4409;352.1458;7.9197;0.00104;1.6E-7;0;Globalstar
12.2025576;0.0012178;51.9905;201.2885;352.9231;7.1442;0.0011269;2.5E-7;0;Globalstar
12.20255926;0.0012195;51.9906;198.7533;354.6678;5.4038;0.0012786;4.1E-7;0;Globalstar
12.20255979;0.0012206;51.9906;198.2923;354.9766;5.0957;0.0013224;4.6E-7;0;Globalstar
12.20256168;0.0012227;51.9905;195.5265;356.8716;3.2053;0.0013303;4.7E-7;0;Globalstar
12.20256342;0.0012247;51.9905;192.7607;358.7792;1.3024;0.0011696;3.0E-7;0;Globalstar
12.20256452;0.0012255;51.9905;191.3778;359.7074;0.3764;0.0010925;2.2E-7;0;Globalstar
12.20256509;0.001226;51.9905;190.4559;0.3415;359.7439;0.00099347;1.2E-7;0;Globalstar
12.20256632;0.0012274;51.9904;188.3816;1.7638;358.3251;0.0007736;-1.1E-7;0;Globalstar
12.20256659;0.0012279;51.9904;187.6901;2.2282;357.8618;0.00068987;-2.0E-7;0;Globalstar
12.20256789;0.0012292;51.9903;185.1547;3.971;356.1233;0.00041851;-4.8E-7;0;Globalstar
12.20256809;0.0012295;51.9902;184.9243;4.1403;355.9545;0.0004191;-4.8E-7;0;Globalstar
12.20256997;0.0012319;51.9901;182.1585;6.0335;354.0659;0.00032174;-5.8E-7;0;Globalstar
12.20257048;0.0012332;51.99;181.467;6.476;353.6244;0.00031224;-5.9E-7;0;Globalstar
12.20257196;0.0012344;51.9899;179.1622;8.0472;352.0572;0.00037076;-5.3E-7;0;Globalstar
12.20257242;0.0012349;51.9899;178.7012;8.365;351.7401;0.00041136;-4.9E-7;0;Globalstar
12.20257293;0.0012368;51.9897;176.1659;10.1059;350.0035;0.0004211;-4.8E-7;0;Globalstar
12.20257438;0.0012396;51.9896;173.1695;12.1578;347.9566;0.00065913;-2.3E-7;0;Globalstar
12.20257555;0.0012411;51.9895;170.8646;13.7311;346.3871;0.00087869;0;0;Globalstar
12.20257678;0.0012429;51.9894;168.7902;15.1346;344.9871;0.0010581;1.8E-7;0;Globalstar
12.20257725;0.0012442;51.9894;167.8682;15.7788;344.3445;0.0011321;2.6E-7;0;Globalstar
12.20257899;0.0012461;51.9893;165.3328;17.5067;342.6208;0.0012995;4.3E-7;0;Globalstar
12.20257926;0.0012464;51.9893;165.1023;17.6661;342.4617;0.0013331;4.7E-7;0;Globalstar
12.20258097;0.0012486;51.9893;162.3363;19.5898;340.5427;0.0013459;4.8E-7;0;Globalstar
12.20258228;0.0012516;51.9892;159.3399;21.6199;338.5174;0.0011302;2.6E-7;0;Globalstar
12.20258228;0.0012516;51.9892;159.3399;21.6199;338.5174;0.0011302;2.6E-7;0;Globalstar
12.20258274;0.0012542;51.989;156.5738;23.5319;336.61;0.0007667;-1.2E-7;0;Globalstar
12.20258294;0.0012556;51.989;154.7298;24.851;335.2939;0.00049645;-4.0E-7;0;Globalstar
12.20258254;0.0012575;51.9889;153.5773;25.5966;334.5502;0.00026062;-6.5E-7;0;Globalstar
12.20258207;0.0012598;51.9888;151.0418;27.3425;332.8083;-0.0001104;-1.03E-6;0;Globalstar
12.20258193;0.0012622;51.9887;148.0452;29.4198;330.7358;-0.0003623;-1.29E-6;0;Globalstar
12.20258161;0.0012653;51.9886;145.2792;31.3253;328.8346;-0.00044739;-1.38E-6;0;Globalstar
12.20258144;0.0012666;51.9886;143.6657;32.4499;327.7125;-0.00043297;-1.37E-6;0;Globalstar
12.20258145;0.0012682;51.9886;142.5132;33.2393;326.9249;-0.00035674;-1.29E-6;0;Globalstar
12.20258134;0.0012696;51.9886;140.6691;34.5385;325.6285;-0.00025157;-1.18E-6;0;Globalstar
12.20258154;0.0012716;51.9886;139.7472;35.151;325.0174;-0.00013154;-1.05E-6;0;Globalstar
12.20258171;0.0012746;51.9887;136.9811;37.0843;323.0882;0.00013691;-7.8E-7;0;Globalstar
12.20258209;0.0012774;51.9888;134.215;39.0164;321.1602;0.00040596;-5.0E-7;0;Globalstar
12.20258241;0.0012791;51.9888;132.371;40.3086;319.8708;0.0005225;-3.7E-7;0;Globalstar
12.20258253;0.0012797;51.9889;131.449;40.9635;319.2171;0.00057088;-3.2E-7;0;Globalstar
12.20258277;0.0012826;51.989;129.3745;42.4142;317.7695;0.00060391;-2.9E-7;0;Globalstar
12.20258336;0.0012843;51.9891;127.3;43.8643;316.3222;0.00059612;-3.0E-7;0;Globalstar
12.20258353;0.0012858;51.9892;126.378;44.516;315.6719;0.0005601;-3.4E-7;0;Globalstar
12.20258398;0.0012884;51.9893;124.534;45.8116;314.3788;0.00046867;-4.3E-7;0;Globalstar
12.20258423;0.0012909;51.9894;123.1511;46.7871;313.4053;0.00035245;-5.5E-7;0;Globalstar
12.2025845;0.0012926;51.9894;121.7681;47.7678;312.4264;0.00024617;-6.6E-7;0;Globalstar
12.2025846;0.0012958;51.9896;119.0021;49.7387;310.4591;-5.1523E-5;-9.7E-7;0;Globalstar
12.20258484;0.0012979;51.9897;116.0056;51.8759;308.3257;-0.00031069;-1.24E-6;0;Globalstar
12.20258494;0.0012962;51.9898;115.5446;52.2074;307.9945;-0.00034572;-1.28E-6;0;Globalstar
12.20258487;0.0012969;51.9898;114.6225;52.8508;307.3522;-0.00040635;-1.34E-6;0;Globalstar
12.2025847;0.0012986;51.9899;112.548;54.3408;305.8646;-0.00047018;-1.41E-6;0;Globalstar
12.20258488;0.0013009;51.9901;110.4735;55.8004;304.4075;-0.00042132;-1.36E-6;0;Globalstar
12.20258481;0.0013028;51.9901;109.0905;56.7864;303.4231;-0.00036962;-1.3E-6;0;Globalstar
12.20258451;0.001306;51.9904;106.3245;58.7566;301.4559;-0.00021128;-1.14E-6;0;Globalstar
12.20258445;0.0013088;51.9905;104.2501;60.2453;299.9695;-2.3696E-5;-9.4E-7;0;Globalstar
12.20258425;0.0013107;51.9907;102.1757;61.71;298.5068;0.00012993;-7.8E-7;0;Globalstar
12.20258392;0.001313;51.9908;101.2537;62.3826;297.8353;0.0001788;-7.3E-7;0;Globalstar
12.20258376;0.0013133;51.9908;100.7928;62.6958;297.5225;0.00017556;-7.4E-7;0;Globalstar
12.20258373;0.0013167;51.9911;98.0269;64.6615;295.5594;0.00034271;-5.6E-7;0;Globalstar
12.20258385;0.0013183;51.9912;96.4135;65.8235;294.3989;0.00039539;-5.1E-7;0;Globalstar
